[{"OBJECT_ID":"2004-024A","OBJECT_NAME":"APSTAR 5 (TELSTAR 18)","NORAD_CAT_ID":"28364","OBJECT_TYPE":"PAYLOAD","PERIOD":"1436.110","INCLINATION":"0.0543","APOGEE":"35798.309","PERIGEE":"35775.405","ECCENTRICITY":"0.0002716","MEAN_MOTION":"1.00270856","TLE_LINE1":"1 28364U 04024A   16238.92132579 -.00000322 +00000-0 +00000-0 0  9999","TLE_LINE2":"2 28364 000.0543 273.7806 0002716 240.4607 290.0166 01.00270856044684","LAUNCH_DATE":"2004-06-29","LAUNCH_SITE":"SEA LAUNCH","OWNER":"PEOPLES REPUBLIC OF CHINA","ORBIT_TYPE":"Geosynchronous","OPERATIONAL_STATUS":"Operational","satInfo":{"lng":133.86340306528183,"lat":1.9910481977845844,"elevation":-6.6239218744934805,"azimuth":181.13659693471814,"range":42423.46527181086,"height":35787.569585662735,"velocity":3.0742936037572153},"x":245.89550773954298,"y":236.25407125309115,"dx":-2.130305449675922,"dy":2.216546830812197,"maxAlt":341.8912548996643,"minAlt":341.6712914547577},{"OBJECT_ID":"2004-024B","OBJECT_NAME":"BLOCK DM-SL R/B","NORAD_CAT_ID":"28365","OBJECT_TYPE":"ROCKET BODY","PERIOD":"385.696","INCLINATION":"0.0611","APOGEE":"21635.398","PERIGEE":"712.121","ECCENTRICITY":"0.5960404","MEAN_MOTION":"3.73350499","TLE_LINE1":"1 28365U 04024B   16238.79425027 +.00000085 +00000-0 +99502-3 0  9991","TLE_LINE2":"2 28365 000.0611 039.9423 5960404 188.9025 340.9476 03.73350499165902","LAUNCH_DATE":"2004-06-29","LAUNCH_SITE":"SEA LAUNCH","OWNER":"SEA LAUNCH DEMO","ORBIT_TYPE":"Highly Elliptical Orbit","OPERATIONAL_STATUS":"N/A, derelict rocket body","satInfo":{"lng":-108.66629791135107,"lat":0.12177468489907876,"elevation":-12.734679442772322,"azimuth":63.666297911351045,"range":28570.49633624149,"height":21489.62508063914,"velocity":2.4271403373777383},"x":-197.42976226415377,"y":64.14773847883136,"dx":-0.7768202800405665,"dy":-2.2994696062013555,"maxAlt":205.87472095511234,"minAlt":4.933571476607143},{"OBJECT_ID":"2004-027A","OBJECT_NAME":"ANIK F2","NORAD_CAT_ID":"28378","OBJECT_TYPE":"PAYLOAD","PERIOD":"1436.103","INCLINATION":"0.0203","APOGEE":"35787.979","PERIGEE":"35785.475","ECCENTRICITY":"2.97e-05","MEAN_MOTION":"1.0027132","TLE_LINE1":"1 28378U 04027A   16238.31198269 -.00000076  00000-0  00000+0 0  9993","TLE_LINE2":"2 28378   0.0203  46.4138 0000297 215.8053  73.0222  1.00271320 44429","LAUNCH_DATE":"2004-07-18","LAUNCH_SITE":"FRENCH GUIANA","OWNER":"CANADA","ORBIT_TYPE":"Geosynchronous","OPERATIONAL_STATUS":"Operational","satInfo":{"lng":-105.41326061619274,"lat":1.5351457445367551,"elevation":-7.072041885002788,"azimuth":60.41326061619272,"range":42469.66746006719,"height":35783.54422077853,"velocity":3.0747790738639984},"x":-333.2004066638651,"y":89.43090252740078,"dx":-0.8172124514938817,"dy":-2.964191316732999,"maxAlt":341.7920485433124,"minAlt":341.76800084570294},{"OBJECT_ID":"2004-031A","OBJECT_NAME":"AMAZONAS","NORAD_CAT_ID":"28393","OBJECT_TYPE":"PAYLOAD","PERIOD":"1436.129","INCLINATION":"1.1352","APOGEE":"35803.377","PERIGEE":"35771.078","ECCENTRICITY":"0.000383","MEAN_MOTION":"1.00269533","TLE_LINE1":"1 28393U 04031A   16238.36903029 -.00000273  00000-0  00000+0 0  9997","TLE_LINE2":"2 28393   1.1352  85.1641 0003830  97.2197 248.3062  1.00269533 44195","LAUNCH_DATE":"2004-08-04","LAUNCH_SITE":"TYURATAM MISSILE AND SPACE COMPLEX","OWNER":"SPAIN","ORBIT_TYPE":"Geosynchronous","OPERATIONAL_STATUS":"Operational","satInfo":{"lng":-40.85980451610835,"lat":2.5186739713419044,"elevation":-6.110916573483029,"azimuth":355.85980451610834,"range":42339.39515149208,"height":35761.33971065768,"velocity":3.076223624120029},"x":-226.5885274594973,"y":-261.65468333561404,"dx":2.326586725224687,"dy":-2.0124974523219734,"maxAlt":341.93992651766933,"minAlt":341.62973618816187},{"OBJECT_ID":"2004-048A","OBJECT_NAME":"AMC-16","NORAD_CAT_ID":"28472","OBJECT_TYPE":"PAYLOAD","PERIOD":"1436.098","INCLINATION":"0.0566","APOGEE":"35797.497","PERIGEE":"35775.740","ECCENTRICITY":"0.000258","MEAN_MOTION":"1.00271708","TLE_LINE1":"1 28472U 04048A   16238.62456866 -.00000233  00000-0  00000+0 0  9990","TLE_LINE2":"2 28472   0.0566 293.6141 0002580 239.0703 301.4653  1.00271708 42898","LAUNCH_DATE":"2004-12-17","LAUNCH_SITE":"AIR FORCE EASTERN TEST RANGE","OWNER":"SOCIÉTÉ EUROPÉENNE DES SATELLITES","ORBIT_TYPE":"Geosynchronous","OPERATIONAL_STATUS":"Operational","satInfo":{"lng":-101.1309657983134,"lat":-1.4790216857700815,"elevation":-10.015205584349692,"azimuth":56.13096579831339,"range":42806.256282102324,"height":35789.856262401794,"velocity":3.07480484573026},"x":-339.1551315916412,"y":64.44962991729707,"dx":-0.5935980953808287,"dy":-3.016963065814121,"maxAlt":341.8834566846249,"minAlt":341.6745086986471},{"OBJECT_ID":"2005-005A","OBJECT_NAME":"XTAR-EUR","NORAD_CAT_ID":"28542","OBJECT_TYPE":"PAYLOAD","PERIOD":"1436.079","INCLINATION":"0.106","APOGEE":"35796.501","PERIGEE":"35776.026","ECCENTRICITY":"0.0002428","MEAN_MOTION":"1.00272973","TLE_LINE1":"1 28542U 05005A   16237.99256961 +.00000126 +00000-0 +00000-0 0  9996","TLE_LINE2":"2 28542 000.1060 273.6947 0002428 255.2025 191.1031 01.00272973042277","LAUNCH_DATE":"2005-02-12","LAUNCH_SITE":"FRENCH GUIANA","OWNER":"UNITED STATES OF AMERICA","ORBIT_TYPE":"Geosynchronous","OPERATIONAL_STATUS":"Operational","satInfo":{"lng":75.79558048229275,"lat":1.9442773804372484,"elevation":-6.674234507660665,"azimuth":239.20441951770727,"range":42407.11973602273,"height":35765.828229537874,"velocity":3.075241764929693},"x":331.07776210165105,"y":-86.19046615339171,"dx":0.7546094774017272,"dy":2.9812206307791755,"maxAlt":341.87389138637445,"minAlt":341.67725536059453},{"OBJECT_ID":"2005-006A","OBJECT_NAME":"MTSAT 1R","NORAD_CAT_ID":"28622","OBJECT_TYPE":"PAYLOAD","PERIOD":"1455.816","INCLINATION":"1.1691","APOGEE":"36236.246","PERIGEE":"36107.175","ECCENTRICITY":"0.0015167","MEAN_MOTION":"0.98913546","TLE_LINE1":"1 28622U 05006A   16238.88338789 -.00000201 +00000-0 +00000-0 0  9999","TLE_LINE2":"2 28622 001.1691 083.9132 0015167 200.5497 312.8841 00.98913546008586","LAUNCH_DATE":"2005-02-26","LAUNCH_SITE":"TANEGASHIMA SPACE CENTER","OWNER":"JAPAN","ORBIT_TYPE":"Unclassified","OPERATIONAL_STATUS":"Nonoperational","satInfo":{"lng":76.06860314804545,"lat":-3.303757689587559,"elevation":-11.724164463201788,"azimuth":238.93139685195453,"range":43323.55433528704,"height":36112.11294808827,"velocity":3.0650577094485496},"x":334.7034054747424,"y":-85.40347806234588,"dx":0.7379431043609744,"dy":2.97489810530984,"maxAlt":346.0970762047672,"minAlt":344.85751535087513},{"OBJECT_ID":"2005-008A","OBJECT_NAME":"XM-3","NORAD_CAT_ID":"28626","OBJECT_TYPE":"PAYLOAD","PERIOD":"1436.087","INCLINATION":"0.0028","APOGEE":"35788.766","PERIGEE":"35784.061","ECCENTRICITY":"5.58e-05","MEAN_MOTION":"1.00272437","TLE_LINE1":"1 28626U 05008A   16239.28973251 -.00000234  00000-0  00000+0 0  9994","TLE_LINE2":"2 28626   0.0028  86.0840 0000558 189.5395  78.5099  1.00272437 42145","LAUNCH_DATE":"2005-03-01","LAUNCH_SITE":"SEA LAUNCH","OWNER":"UNITED STATES OF AMERICA","ORBIT_TYPE":"Geosynchronous","OPERATIONAL_STATUS":"Operational","satInfo":{"lng":-100.56611860330173,"lat":2.2011637194592018,"elevation":-6.415534128438097,"azimuth":55.56611860330173,"range":42410.37399122107,"height":35797.737418862846,"velocity":3.074227362486719},"x":-339.86729529403294,"y":61.13558126413377,"dx":-0.5637212792770375,"dy":-3.0221006263114916,"maxAlt":341.7996066655243,"minAlt":341.7544211953756},{"OBJECT_ID":"2005-008B","OBJECT_NAME":"BLOCK DM-SL R/B","NORAD_CAT_ID":"28627","OBJECT_TYPE":"ROCKET BODY","PERIOD":"673.283","INCLINATION":"0.5422","APOGEE":"35748.833","PERIGEE":"2387.589","ECCENTRICITY":"0.6555213","MEAN_MOTION":"2.13877262","TLE_LINE1":"1 28627U 05008B   16238.82167168 -.00000099  00000-0  00000+0 0  9995","TLE_LINE2":"2 28627   0.5422 307.7027 6555213 150.2171 136.8455  2.13877262 89782","LAUNCH_DATE":"2005-03-01","LAUNCH_SITE":"SEA LAUNCH","OWNER":"SEA LAUNCH DEMO","ORBIT_TYPE":"Highly Elliptical Orbit","OPERATIONAL_STATUS":"N/A, derelict rocket body","satInfo":{"lng":-35.26621290576292,"lat":0.06021465500632574,"elevation":-8.841377109560351,"azimuth":350.26621290576287,"range":41083.447671783884,"height":34217.16485289831,"velocity":1.9934712940327441},"x":-191.63810324992534,"y":-270.2098361795726,"dx":1.627625870868498,"dy":-1.1509829818951045,"maxAlt":341.41610159019,"minAlt":21.024285461536564},{"OBJECT_ID":"2005-010A","OBJECT_NAME":"EXPRESS AM-2","NORAD_CAT_ID":"28629","OBJECT_TYPE":"PAYLOAD","PERIOD":"1436.095","INCLINATION":"1.7289","APOGEE":"35792.126","PERIGEE":"35781.003","ECCENTRICITY":"0.0001319","MEAN_MOTION":"1.002719","TLE_LINE1":"1 28629U 05010A   16238.87155390 -.00000165 +00000-0 +00000-0 0  9994","TLE_LINE2":"2 28629 001.7289 080.6542 0001319 119.7718 167.9079 01.00271900005069","LAUNCH_DATE":"2005-03-29","LAUNCH_SITE":"TYURATAM MISSILE AND SPACE COMPLEX","OWNER":"COMMONWEALTH OF INDEPENDENT STATES","ORBIT_TYPE":"Geosynchronous","OPERATIONAL_STATUS":"Operational","satInfo":{"lng":70.63081565362626,"lat":-3.7413735974933333,"elevation":-12.211543479039785,"azimuth":244.36918434637374,"range":43048.41346419238,"height":35786.00409919553,"velocity":3.0746992831842004},"x":322.3212799846878,"y":-115.88771547815294,"dx":1.0197356582940453,"dy":2.900674898918706,"maxAlt":341.8318751415497,"minAlt":341.72505304070717}]